C/2002 O4 (Honig),h,09/27.8087/2002,73.1850,322.0126,105.5695,1.000255,0.775987,2000,9.5,4.0
# From MPC 46620
C/2002 O6 (SWAN),e,58.6247,330.9520,78.7480,355.3163,0.0001472,0.99860786,0.0000,09/09.4491/2002,2000,g 10.0,4.0
# From MPC 47292
C/2002 O7 (LINEAR),h,09/27.6350/2003,98.4359,12.4265,251.8030,1.000417,0.884787,2000,6.5,4.0
# From MPC 89007
C/2002 P1 (NEAT),e,34.6515,310.3691,347.9912,472.6468,0.0000959,0.98621672,0.0000,12/01.3047/2001,2000,g  6.0,4.0
# From MPC 46620
C/2002 Q2 (LINEAR),p,08/18.2562/2002,96.8991,125.7442,1.306193,154.1483,2000,16.0,4.0
# From MPC 46621
C/2002 Q3 (LINEAR),p,08/19.0896/2002,96.8953,125.7615,1.306216,154.1513,2000,18.0,4.0
# From MPC 47727
C/2002 Q5 (LINEAR),h,11/18.0230/2002,149.1633,34.1444,133.9022,1.001374,1.268914,2000,9.0,4.0
# From MPC 47292
C/2002 R3 (LONEOS),e,161.0787,54.3012,44.9244,7773,0.0000014,0.99950164,0.0000,06/01.5102/2003,2000,g  8.0,4.0
# From MPEC 2020-SI8
P/2002 T5 (LINEAR),e,30.8529,123.0882,326.7709,7.004557,0.0531659,0.43784085,336.8809,10/06.0/2020,2000,g  8.0,4.0
# From MPC109588
P/2002 T6 (NEAT-LINEAR),e,10.8331,206.4987,219.5667,7.668304,0.0464147,0.55993204,295.6264,10/06.0/2020,2000,g 10.5,4.0
# From MPC 52164
C/2002 T7 (LINEAR),h,04/18.9323/2004,160.6628,94.8931,158.0181,1.000525,0.634034,2000,4.0,4.0
# From MPC 47727
C/2002 U2 (LINEAR),e,59.1736,38.9013,96.0068,1553,0.0000161,0.99920352,0.0000,12/22.4593/2002,2000,g 13.0,4.0
# From MPC 89007
C/2002 V1 (NEAT),e,82.2912,63.6756,152.4168,1358,0.0000197,0.99992325,0.0000,02/23.1599/2003,2000,g  8.0,4.0
# From MPC 82312
C/2002 V2 (LINEAR),e,166.7712,20.1657,314.2265,2014,0.0000109,0.99664310,0.0000,05/10.9476/2003,2000,g  6.0,4.0
# From MPC 75007
C/2002 VQ94 (LINEAR),e,70.5572,35.0031,100.1750,186.1285,0.0003881,0.96327915,2.0825,10/06.0/2020,2000,g  9.5,2.0
# From MPC 50914
C/2002 X1 (LINEAR),e,163.9963,281.9405,207.0312,773.9900,0.0000458,0.99682966,0.0000,07/11.1613/2003,2000,g  8.0,4.0
# From MPC 48097
C/2002 X5 (Kudo-Fujikawa),h,01/29.4321/2003,95.8580,119.0330,187.7749,1.000066,0.194842,2000,8.5,4.0
# From MPC 48381
C/2002 Y1 (Juels-Holvorcem),e,104.0722,165.4177,128.4698,220.1047,0.0003018,0.99679311,0.0000,04/10.1741/2003,2000,g  6.5,4.0
# From MPC 48381
C/2003 A2 (Gleason),e,8.0671,154.6659,346.7444,7966,0.0000014,0.99856029,0.0000,10/27.8682/2003,2000,g  3.5,4.0
# From MPC 51182
C/2003 E1 (NEAT),e,33.5157,136.8150,104.2043,13.76826,0.0192924,0.76424903,117.1565,10/06.0/2020,2000,g 12.5,2.0
# From MPC 49276
C/2003 F1 (LINEAR),e,70.2229,87.3269,121.4032,20.60602,0.0105369,0.80393503,66.5469,10/06.0/2020,2000,g  7.0,4.0
# From MPC 50354
P/2003 F2 (NEAT),e,11.6049,359.0798,191.8940,6.488165,0.0596378,0.54213355,19.6082,10/06.0/2020,2000,g 16.5,2.0
# From MPC 49276
C/2003 G1 (LINEAR),h,02/07.9999/2003,66.9160,246.0216,11.7332,1.003303,4.943572,2000,5.0,4.0
# From MPC 48921
C/2003 G2 (LINEAR),p,04/29.8899/2003,96.2024,190.6530,1.553788,24.5677,2000,16.0,4.0
# From MPC 51182
C/2003 H1 (LINEAR),e,138.5323,19.0986,196.2093,6378,0.0000019,0.99964958,0.0000,02/28.9964/2004,2000,g  6.5,4.0
# From MPC 49277
C/2003 H2 (LINEAR),e,74.3519,79.6518,155.3646,38.52106,0.0041225,0.94286634,26.1780,10/06.0/2020,2000,g 13.0,4.0
# From MPC 52905
C/2003 H3 (NEAT),h,04/30.8952/2003,42.9807,269.2521,6.7006,1.001091,2.901710,2000,9.5,4.0
# From MPC 52314
C/2003 J1 (NEAT),e,98.5153,121.8740,196.1298,544.2507,0.0000776,0.99055017,0.0000,10/09.3826/2003,2000,g  7.0,4.0
# From MPC 49277
C/2003 K1 (Spacewatch),e,129.8747,250.0709,314.6471,46.51513,0.0031068,0.95507821,359.9982,12/21.0/2002,2000,g 12.5,4.0
# From MPC 52315
C/2003 K4 (LINEAR),h,10/19.6778/2004,134.0269,18.7198,198.4078,1.000520,1.016366,2000,3.5,4.0
# From MPC 51183
C/2003 L2 (LINEAR),e,82.0642,273.8188,119.5595,147.2156,0.0005518,0.98072916,0.0000,01/21.1145/2004,2000,g 10.0,4.0
# From MPC 52164
C/2003 O1 (LINEAR),e,118.1330,347.6988,81.9853,7709,0.0000015,0.99910580,0.0000,03/11.5993/2004,2000,g  6.0,4.0
# From MPC 50139
P/2003 QX29 (NEAT),e,11.3898,264.5921,37.3855,8.033631,0.0432849,0.47295746,283.6519,10/06.0/2020,2000,g  8.5,4.0
# From MPC 50355
C/2003 R1 (LINEAR),e,149.2189,356.4356,302.2348,19.41932,0.0115174,0.89244213,72.7549,10/06.0/2020,2000,g 15.0,2.0
# From MPC 50355
C/2003 S3 (LINEAR),h,04/08.3086/2003,151.4992,226.3886,154.1928,1.000043,8.073174,2000,5.5,4.0
# From MPC 52905
C/2003 S4-A (LINEAR),e,40.5925,224.4971,154.2320,38.86950,0.0040672,0.90150927,24.3102,10/06.0/2020,2000,g  9.0,4.0
# From MPC 52905
C/2003 S4-B (LINEAR),e,40.5923,224.4977,154.2336,38.87318,0.0040666,0.90152035,24.3067,10/06.0/2020,2000,g  9.0,4.0
# From MPC 50460
C/2003 T2 (LINEAR),e,87.4803,238.5869,151.9040,1343,0.0000200,0.99868982,0.0000,11/12.1069/2003,2000,g 11.5,4.0
# From MPC 52315
C/2003 T3 (Tabur),e,50.8461,347.2014,43.4929,1185,0.0000242,0.99875899,0.0000,04/23.7364/2004,2000,g  5.0,4.0
# From MPC 53949
C/2003 T4 (LINEAR),h,04/06.4549/2005,87.2212,93.7807,181.7438,1.000603,0.854072,2000,6.0,4.0
# From MPC 50461
C/2003 U1 (LINEAR),e,164.4599,322.4515,277.8998,22.47241,0.0092519,0.92034253,57.2898,10/06.0/2020,2000,g 14.5,4.0
# From MPC 60280
C/2003 V1 (LINEAR),e,28.8308,25.6325,8.5857,398.9156,0.0001237,0.99557242,0.0000,03/05.2498/2003,2000,g  8.5,4.0
# From MPC 51183
C/2003 W1 (LINEAR),e,78.0515,256.9461,112.9976,24.92282,0.0079215,0.93471144,48.9055,10/06.0/2020,2000,g 14.5,4.0
# From MPC 56169
C/2003 WT42 (LINEAR),e,31.4120,48.4088,92.6038,6915,0.0000017,0.99924419,0.0000,03/31.2671/2006,2000,g 11.5,2.0
# From MPC 82312
P/2004 A1 (LONEOS),e,10.5516,124.8474,21.4428,7.954864,0.0439294,0.30939047,258.9599,10/06.0/2020,2000,g  6.5,4.0
# From MPC 57131
C/2004 B1 (LINEAR),h,02/04.1376/2006,114.2766,272.5736,327.9557,1.000938,1.621026,2000,10.5,2.0
# From MPC 51368
C/2004 C1 (Larsen),e,28.8625,151.9549,315.9683,11.62433,0.0248686,0.62580256,359.9917,03/19.0/2003,2000,g 13.5,2.0
# From MPC 63599
C/2004 D1 (NEAT),e,45.5008,62.1896,75.6812,2901,0.0000063,0.99827382,0.0000,01/31.2624/2006,2000,g 11.5,2.0
# From MPC 54558
P/2004 DO29 (Spacewatch-LINEAR),e,14.5316,147.3813,40.7336,7.282199,0.0501545,0.44137515,292.9102,10/06.0/2020,2000,g 13.5,2.0
# From MPC 51368
C/2004 DZ61 (Catalina-LINEAR),e,66.4725,172.6988,44.5512,45.67102,0.0031933,0.95586333,19.0735,10/06.0/2020,2000,g 15.5,2.0
# From MPC 52169
C/2004 F2 (LINEAR),e,105.0436,248.1429,317.3731,148.5445,0.0005444,0.99018191,0.0000,12/22.7903/2003,2000,g 16.0,2.0
# From MPC 52317
C/2004 F4 (Bradfield),e,63.0489,222.8904,332.9476,251.9436,0.0002465,0.99930357,0.0000,04/20.3988/2004,2000,g 10.0,4.0
# From MPC 54823
P/2004 FY140 (LINEAR),e,2.1348,326.7620,242.4699,4.901397,0.0908289,0.16868900,172.5442,10/06.0/2020,2000,g 12.5,2.0
# From MPC 52169
C/2004 G1 (LINEAR),p,06/04.7914/2004,114.4898,110.4895,1.202466,228.3763,2000,15.5,2.0
# From MPC 51821
C/2004 H1 (LINEAR),p,01/14.999/2004,140.746,290.249,2.07570,120.014,2000,15.0,2.0
# From MPC 52318
C/2004 H6 (SWAN),h,05/09.2925/2004,107.4016,316.5056,268.7661,1.000085,0.774628,2000,7.5,4.0
# From MPC 52169
C/2004 HV60 (Spacewatch),p,12/21.526/2003,93.488,149.127,3.10499,44.849,2000,13.0,4.0
# From MPC 56169
C/2004 K1 (Catalina),e,153.8000,327.2184,98.1127,3133,0.0000056,0.99890876,0.0000,07/05.1760/2005,2000,g  7.0,4.0
# From MPC 52320
C/2004 K3 (LINEAR),e,111.9286,275.5378,60.4899,58.30005,0.0022141,0.98107439,0.0000,06/30.4548/2004,2000,g 19.0,4.0
# From MPC 53949
C/2004 L1 (LINEAR),e,159.4096,66.3098,243.6366,951.6965,0.0000336,0.99785819,0.0000,04/05.3825/2005,2000,g 10.0,4.0
# From MPC 54823
C/2004 L2 (LINEAR),e,62.6615,99.3252,257.1547,983.6964,0.0000319,0.99618086,0.0000,11/18.7885/2005,2000,g  7.0,4.0
# From MPC 53649
C/2004 P1 (NEAT),h,08/17.1137/2003,28.9006,284.0276,16.7670,1.001769,6.000729,2000,7.0,4.0
# From MPC 54698
C/2004 Q1 (Tucker),e,56.2746,22.1084,32.8675,163.4790,0.0004715,0.98748948,0.0000,11/28.3703/2004,2000,g  9.5,4.0
# From MPC 84315
C/2004 Q2 (Machholz),e,38.5113,93.4418,19.5915,536.4158,0.0000793,0.99773008,0.0000,01/15.0764/2005,2000,g  5.5,4.0
# From MPC 52906
C/2004 R2 (ASAS),p,10/07.897/2004,63.174,5.354,0.11283,182.464,2000,11.5,4.0
# From MPC 53304
P/2004 R3 (LINEAR-NEAT),e,12.8247,305.4819,38.9088,4.790631,0.0939972,0.26119728,326.3788,10/06.0/2020,2000,g 14.5,4.0
# From MPC 53305
C/2004 RG113 (LINEAR),e,21.4914,8.5935,125.2470,343.7946,0.0001546,0.99430483,0.0000,02/21.5611/2005,2000,g 13.0,4.0
# From MPC 52906
C/2004 S1 (Van Ness),p,12/08.9212/2004,114.6676,92.8155,0.681783,19.2198,2000,16.5,4.0
# From MPC 53465
C/2004 T3 (Siding Spring),h,04/24.5022/2003,71.9676,50.3781,259.6857,1.001448,8.844367,2000,2.5,4.0
# From MPC 54823
C/2004 U1 (LINEAR),e,130.3626,112.6347,19.9366,1111,0.0000266,0.99762525,0.0000,12/07.9065/2004,2000,g 11.0,4.0
# From MPC 55521
P/2004 V3 (Siding Spring),e,50.4310,356.1143,322.2904,7.144657,0.0516098,0.44631484,301.0670,10/06.0/2020,2000,g 11.5,4.0
# From MPC 75705
P/2004 V5-A (LINEAR-Hill),e,19.3457,47.7667,87.8021,7.975123,0.0437621,0.44353226,250.2060,10/06.0/2020,2000,g  8.0,4.0
# From MPC 75705
P/2004 V5-B (LINEAR-Hill),e,19.3458,47.7670,87.8048,7.975577,0.0437583,0.44356100,250.1733,10/06.0/2020,2000,g  8.0,4.0
# From MPC 53466
C/2004 V13 (SWAN),p,12/21.152/2004,34.810,92.692,0.18086,207.699,2000,15.0,4.0
# From MPC 53467
C/2004 X2 (LINEAR),e,71.9561,307.5889,161.9955,678.5522,0.0000558,0.99440930,0.0000,08/18.9919/2004,2000,g 10.0,4.0
# From MPC 56953
C/2004 X3 (LINEAR),h,06/16.2584/2005,80.8551,343.1333,202.1827,1.004007,4.416595,2000,8.5,4.0
# From MPC 55717
C/2004 YJ35 (LINEAR),e,52.3413,328.6140,136.6528,1290,0.0000213,0.99861041,0.0000,02/24.1230/2005,2000,g 15.0,2.0
# From MPC 54364
C/2005 A1-A (LINEAR),h,04/13.5555/2005,74.7011,355.3439,271.8967,1.000567,0.895838,2000,9.0,4.0
# From MPC 75514
C/2005 B1 (Christensen),e,92.4826,195.4488,102.9883,8471,0.0000013,0.99962496,0.0000,02/28.2172/2006,2000,g  6.5,4.0
# From MPC 54164
P/2005 E1 (Tubbiolo),e,4.2637,335.5740,194.1368,7.036863,0.0528002,0.37520485,302.4983,10/06.0/2020,2000,g 10.0,4.0
# From MPC 58118
